{
  "type": "FeatureCollection",
  "features": [
    {
      "type": "Feature",
      "properties": {
        "norad_id": 29937,
        "name": "FENGYUN 1C DEB",
        "group": "fengyun-1c-debris",
        "lat": 76.74913710111703,
        "lon": -39.09580038660019,
        "alt_km": 853.9813791927909,
        "timestamp": "2025-12-06T20:37:56.344380+00:00",
        "meta_object_name": "FENGYUN 1C DEB",
        "meta_object_id": "1999-025JK",
        "meta_epoch": "2025-12-06T15:41:27.721248",
        "meta_mean_motion": 14.04359008,
        "meta_eccentricity": 0.00325374,
        "meta_inclination": 98.8032,
        "meta_ra_of_asc_node": 1.8566,
        "meta_arg_of_pericenter": 38.3304,
        "meta_mean_anomaly": 81.1744,
        "meta_ephemeris_type": 0,
        "meta_classification_type": "U",
        "meta_norad_cat_id": 29937,
        "meta_element_set_no": 999,
        "meta_rev_at_epoch": 96850,
        "meta_bstar": 0.00024795959,
        "meta_mean_motion_dot": 3.54e-06,
        "meta_mean_motion_ddot": 0,
        "tle_line1": "1 29937U 99025JK  25340.65379307  .00000354  00000+0  24796-3 0  9991",
        "tle_line2": "2 29937  98.8032   1.8566 0032537  38.3304  81.1744 14.04359008968506"
      },
      "geometry": {
        "type": "Point",
        "coordinates": [
          -39.09580038660019,
          76.74913710111703
        ]
      }
    },
    {
      "type": "Feature",
      "properties": {
        "norad_id": 29938,
        "name": "FENGYUN 1C DEB",
        "group": "fengyun-1c-debris",
        "lat": -58.89092124095729,
        "lon": -14.097213707350207,
        "alt_km": 853.8917125619091,
        "timestamp": "2025-12-06T20:37:56.344391+00:00",
        "meta_object_name": "FENGYUN 1C DEB",
        "meta_object_id": "1999-025JL",
        "meta_epoch": "2025-12-06T11:26:27.775968",
        "meta_mean_motion": 14.07453411,
        "meta_eccentricity": 0.00331204,
        "meta_inclination": 98.8019,
        "meta_ra_of_asc_node": 330.6522,
        "meta_arg_of_pericenter": 328.7226,
        "meta_mean_anomaly": 192.1085,
        "meta_ephemeris_type": 0,
        "meta_classification_type": "U",
        "meta_norad_cat_id": 29938,
        "meta_element_set_no": 999,
        "meta_rev_at_epoch": 96968,
        "meta_bstar": 0.00021164618,
        "meta_mean_motion_dot": 3.15e-06,
        "meta_mean_motion_ddot": 0,
        "tle_line1": "1 29938U 99025JL  25340.47671037  .00000315  00000+0  21165-3 0  9991",
        "tle_line2": "2 29938  98.8019 330.6522 0033120 328.7226 192.1085 14.07453411969682"
      },
      "geometry": {
        "type": "Point",
        "coordinates": [
          -14.097213707350207,
          -58.89092124095729
        ]
      }
    },
    {
      "type": "Feature",
      "properties": {
        "norad_id": 29939,
        "name": "FENGYUN 1C DEB",
        "group": "fengyun-1c-debris",
        "lat": -13.484467982715772,
        "lon": 158.50874086017535,
        "alt_km": 818.8029975701456,
        "timestamp": "2025-12-06T20:37:56.344402+00:00",
        "meta_object_name": "FENGYUN 1C DEB",
        "meta_object_id": "1999-025JM",
        "meta_epoch": "2025-12-06T15:09:12.030336",
        "meta_mean_motion": 14.12082835,
        "meta_eccentricity": 0.0066701,
        "meta_inclination": 98.7095,
        "meta_ra_of_asc_node": 340.3935,
        "meta_arg_of_pericenter": 155.7893,
        "meta_mean_anomaly": 317.3998,
        "meta_ephemeris_type": 0,
        "meta_classification_type": "U",
        "meta_norad_cat_id": 29939,
        "meta_element_set_no": 999,
        "meta_rev_at_epoch": 97374,
        "meta_bstar": 7.3766907e-05,
        "meta_mean_motion_dot": 9.6e-07,
        "meta_mean_motion_ddot": 0,
        "tle_line1": "1 29939U 99025JM  25340.63138924  .00000096  00000+0  73767-4 0  9995",
        "tle_line2": "2 29939  98.7095 340.3935 0066701 155.7893 317.3998 14.12082835973741"
      },
      "geometry": {
        "type": "Point",
        "coordinates": [
          158.50874086017535,
          -13.484467982715772
        ]
      }
    },
    {
      "type": "Feature",
      "properties": {
        "norad_id": 29940,
        "name": "FENGYUN 1C DEB",
        "group": "fengyun-1c-debris",
        "lat": -35.579221787349084,
        "lon": 164.47128265938082,
        "alt_km": 844.0797659909622,
        "timestamp": "2025-12-06T20:37:56.344413+00:00",
        "meta_object_name": "FENGYUN 1C DEB",
        "meta_object_id": "1999-025JN",
        "meta_epoch": "2025-12-05T19:04:08.585184",
        "meta_mean_motion": 14.18795289,
        "meta_eccentricity": 0.00746316,
        "meta_inclination": 98.6212,
        "meta_ra_of_asc_node": 349.6663,
        "meta_arg_of_pericenter": 119.5828,
        "meta_mean_anomaly": 58.227,
        "meta_ephemeris_type": 0,
        "meta_classification_type": "U",
        "meta_norad_cat_id": 29940,
        "meta_element_set_no": 999,
        "meta_rev_at_epoch": 97389,
        "meta_bstar": 0.0009902786,
        "meta_mean_motion_dot": 2.075e-05,
        "meta_mean_motion_ddot": 0,
        "tle_line1": "1 29940U 99025JN  25339.79454381  .00002075  00000+0  99028-3 0  9996",
        "tle_line2": "2 29940  98.6212 349.6663 0074631 119.5828  58.2270 14.18795289973890"
      },
      "geometry": {
        "type": "Point",
        "coordinates": [
          164.47128265938082,
          -35.579221787349084
        ]
      }
    },
    {
      "type": "Feature",
      "properties": {
        "norad_id": 29942,
        "name": "FENGYUN 1C DEB",
        "group": "fengyun-1c-debris",
        "lat": -10.721977429383713,
        "lon": -134.90913690999074,
        "alt_km": 802.3293676482117,
        "timestamp": "2025-12-06T20:37:56.344425+00:00",
        "meta_object_name": "FENGYUN 1C DEB",
        "meta_object_id": "1999-025JQ",
        "meta_epoch": "2025-12-06T14:42:07.239456",
        "meta_mean_motion": 14.30379699,
        "meta_eccentricity": 0.00487677,
        "meta_inclination": 98.6377,
        "meta_ra_of_asc_node": 46.4949,
        "meta_arg_of_pericenter": 294.3746,
        "meta_mean_anomaly": 65.235,
        "meta_ephemeris_type": 0,
        "meta_classification_type": "U",
        "meta_norad_cat_id": 29942,
        "meta_element_set_no": 999,
        "meta_rev_at_epoch": 97781,
        "meta_bstar": 0.001336099,
        "meta_mean_motion_dot": 3.474e-05,
        "meta_mean_motion_ddot": 0,
        "tle_line1": "1 29942U 99025JQ  25340.61258379  .00003474  00000+0  13361-2 0  9999",
        "tle_line2": "2 29942  98.6377  46.4949 0048767 294.3746  65.2350 14.30379699977815"
      },
      "geometry": {
        "type": "Point",
        "coordinates": [
          -134.90913690999074,
          -10.721977429383713
        ]
      }
    },
    {
      "type": "Feature",
      "properties": {
        "norad_id": 29943,
        "name": "FENGYUN 1C DEB",
        "group": "fengyun-1c-debris",
        "lat": -38.07348134497691,
        "lon": 161.8858604263288,
        "alt_km": 844.2100844760234,
        "timestamp": "2025-12-06T20:37:56.344435+00:00",
        "meta_object_name": "FENGYUN 1C DEB",
        "meta_object_id": "1999-025JR",
        "meta_epoch": "2025-12-06T15:01:31.937376",
        "meta_mean_motion": 14.09669331,
        "meta_eccentricity": 0.00346714,
        "meta_inclination": 98.7269,
        "meta_ra_of_asc_node": 348.5701,
        "meta_arg_of_pericenter": 244.772,
        "meta_mean_anomaly": 229.009,
        "meta_ephemeris_type": 0,
        "meta_classification_type": "U",
        "meta_norad_cat_id": 29943,
        "meta_element_set_no": 999,
        "meta_rev_at_epoch": 97220,
        "meta_bstar": 0.00013829922,
        "meta_mean_motion_dot": 2.01e-06,
        "meta_mean_motion_ddot": 0,
        "tle_line1": "1 29943U 99025JR  25340.62606409  .00000201  00000+0  13830-3 0  9999",
        "tle_line2": "2 29943  98.7269 348.5701 0034671 244.7720 229.0090 14.09669331972209"
      },
      "geometry": {
        "type": "Point",
        "coordinates": [
          161.8858604263288,
          -38.07348134497691
        ]
      }
    },
    {
      "type": "Feature",
      "properties": {
        "norad_id": 29944,
        "name": "FENGYUN 1C DEB",
        "group": "fengyun-1c-debris",
        "lat": -2.1463946859865546,
        "lon": 93.81138170567547,
        "alt_km": 565.7763245571141,
        "timestamp": "2025-12-06T20:37:56.344446+00:00",
        "meta_object_name": "FENGYUN 1C DEB",
        "meta_object_id": "1999-025JS",
        "meta_epoch": "2025-12-06T06:53:01.203936",
        "meta_mean_motion": 14.8734041,
        "meta_eccentricity": 0.01667627,
        "meta_inclination": 99.0024,
        "meta_ra_of_asc_node": 273.5025,
        "meta_arg_of_pericenter": 252.732,
        "meta_mean_anomaly": 105.5586,
        "meta_ephemeris_type": 0,
        "meta_classification_type": "U",
        "meta_norad_cat_id": 29944,
        "meta_element_set_no": 999,
        "meta_rev_at_epoch": 358,
        "meta_bstar": 0.0014043884,
        "meta_mean_motion_dot": 0.00016341,
        "meta_mean_motion_ddot": 0,
        "tle_line1": "1 29944U 99025JS  25340.28681949  .00016341  00000+0  14044-2 0  9993",
        "tle_line2": "2 29944  99.0024 273.5025 0166762 252.7320 105.5586 14.87340410  3585"
      },
      "geometry": {
        "type": "Point",
        "coordinates": [
          93.81138170567547,
          -2.1463946859865546
        ]
      }
    }
  ]
}